[{"OBJECT_NAME":"STARLINK-35096","OBJECT_ID":"2025-195X","EPOCH":"2026-03-09T22:11:26.168352","MEAN_MOTION":15.302005,"ECCENTRICITY":9.247e-5,"INCLINATION":53.1587,"RA_OF_ASC_NODE":256.8009,"ARG_OF_PERICENTER":84.5439,"MEAN_ANOMALY":275.5667,"EPHEMERIS_TYPE":0,"CLASSIFICATION_TYPE":"U","NORAD_CAT_ID":65479,"ELEMENT_SET_NO":999,"REV_AT_EPOCH":3001,"BSTAR":0.0011212881,"MEAN_MOTION_DOT":0.00032998,"MEAN_MOTION_DDOT":0},{"OBJECT_NAME":"COSMOS 2251 DEB","OBJECT_ID":"1993-036BTX","EPOCH":"2026-02-28T17:34:44.973408","MEAN_MOTION":15.25753352,"ECCENTRICITY":0.00216382,"INCLINATION":73.9681,"RA_OF_ASC_NODE":229.3494,"ARG_OF_PERICENTER":13.6287,"MEAN_ANOMALY":346.5492,"EPHEMERIS_TYPE":0,"CLASSIFICATION_TYPE":"U","NORAD_CAT_ID":38487,"ELEMENT_SET_NO":999,"REV_AT_EPOCH":67986,"BSTAR":0.0024802785,"MEAN_MOTION_DOT":0.00064261,"MEAN_MOTION_DDOT":0}]
